[{"OBJECT_NAME":"ONEWEB-0280","OBJECT_ID":"2021-060AH","EPOCH":"2026-02-05T01:17:52.334016","MEAN_MOTION":13.16596274,"ECCENTRICITY":0.00015495,"INCLINATION":87.9007,"RA_OF_ASC_NODE":255.0789,"ARG_OF_PERICENTER":101.3644,"MEAN_ANOMALY":258.7661,"EPHEMERIS_TYPE":0,"CLASSIFICATION_TYPE":"U","NORAD_CAT_ID":48998,"ELEMENT_SET_NO":999,"REV_AT_EPOCH":22217,"BSTAR":0.00010416504,"MEAN_MOTION_DOT":5.3e-7,"MEAN_MOTION_DDOT":0},{"OBJECT_NAME":"ONEWEB-0281","OBJECT_ID":"2021-060AJ","EPOCH":"2026-02-04T16:18:41.388480","MEAN_MOTION":13.16593886,"ECCENTRICITY":0.00014756,"INCLINATION":87.9012,"RA_OF_ASC_NODE":255.1485,"ARG_OF_PERICENTER":81.3398,"MEAN_ANOMALY":278.79,"EPHEMERIS_TYPE":0,"CLASSIFICATION_TYPE":"U","NORAD_CAT_ID":48999,"ELEMENT_SET_NO":999,"REV_AT_EPOCH":22219,"BSTAR":0.00015040247,"MEAN_MOTION_DOT":7.0e-7,"MEAN_MOTION_DDOT":0},{"OBJECT_NAME":"ONEWEB-0282","OBJECT_ID":"2021-060AK","EPOCH":"2026-02-05T00:19:44.887872","MEAN_MOTION":13.16594026,"ECCENTRICITY":0.00014291,"INCLINATION":87.9005,"RA_OF_ASC_NODE":255.0921,"ARG_OF_PERICENTER":92.1495,"MEAN_ANOMALY":267.98,"EPHEMERIS_TYPE":0,"CLASSIFICATION_TYPE":"U","NORAD_CAT_ID":49000,"ELEMENT_SET_NO":999,"REV_AT_EPOCH":22221,"BSTAR":-0.0002878543,"MEAN_MOTION_DOT":-9.7e-7,"MEAN_MOTION_DDOT":0},{"OBJECT_NAME":"ONEWEB-0283","OBJECT_ID":"2021-060AL","EPOCH":"2026-02-05T07:21:31.457376","MEAN_MOTION":13.16594721,"ECCENTRICITY":0.00013066,"INCLINATION":87.9013,"RA_OF_ASC_NODE":255.0338,"ARG_OF_PERICENTER":84.8268,"MEAN_ANOMALY":275.3012,"EPHEMERIS_TYPE":0,"CLASSIFICATION_TYPE":"U","NORAD_CAT_ID":49001,"ELEMENT_SET_NO":999,"REV_AT_EPOCH":22226,"BSTAR":0.00017478435,"MEAN_MOTION_DOT":8.0e-7,"MEAN_MOTION_DDOT":0},{"OBJECT_NAME":"ONEWEB-0284","OBJECT_ID":"2021-060AM","EPOCH":"2026-02-05T01:44:06.619776","MEAN_MOTION":13.16593848,"ECCENTRICITY":0.00017104,"INCLINATION":87.9012,"RA_OF_ASC_NODE":255.0713,"ARG_OF_PERICENTER":99.313,"MEAN_ANOMALY":260.8194,"EPHEMERIS_TYPE":0,"CLASSIFICATION_TYPE":"U","NORAD_CAT_ID":49002,"ELEMENT_SET_NO":999,"REV_AT_EPOCH":22221,"BSTAR":2.791801e-6,"MEAN_MOTION_DOT":1.4e-7,"MEAN_MOTION_DDOT":0},{"OBJECT_NAME":"ONEWEB-0285","OBJECT_ID":"2021-075A","EPOCH":"2026-02-04T22:35:25.119744","MEAN_MOTION":13.124429,"ECCENTRICITY":0.00017818,"INCLINATION":87.8956,"RA_OF_ASC_NODE":16.9088,"ARG_OF_PERICENTER":88.632,"MEAN_ANOMALY":271.5013,"EPHEMERIS_TYPE":0,"CLASSIFICATION_TYPE":"U","NORAD_CAT_ID":49075,"ELEMENT_SET_NO":999,"REV_AT_EPOCH":21786,"BSTAR":0.0007478896,"MEAN_MOTION_DOT":2.82e-6,"MEAN_MOTION_DDOT":0},{"OBJECT_NAME":"ONEWEB-0286","OBJECT_ID":"2021-075B","EPOCH":"2026-02-04T23:59:22.599168","MEAN_MOTION":13.12441866,"ECCENTRICITY":0.00020313,"INCLINATION":87.8942,"RA_OF_ASC_NODE":16.9275,"ARG_OF_PERICENTER":81.0454,"MEAN_ANOMALY":279.0904,"EPHEMERIS_TYPE":0,"CLASSIFICATION_TYPE":"U","NORAD_CAT_ID":49076,"ELEMENT_SET_NO":999,"REV_AT_EPOCH":21722,"BSTAR":0.0012166407,"MEAN_MOTION_DOT":4.5e-6,"MEAN_MOTION_DDOT":0},{"OBJECT_NAME":"ONEWEB-0287","OBJECT_ID":"2021-075C","EPOCH":"2026-02-04T23:04:59.532960","MEAN_MOTION":13.17649544,"ECCENTRICITY":0.00022708,"INCLINATION":87.9096,"RA_OF_ASC_NODE":32.1363,"ARG_OF_PERICENTER":84.6222,"MEAN_ANOMALY":275.5169,"EPHEMERIS_TYPE":0,"CLASSIFICATION_TYPE":"U","NORAD_CAT_ID":49077,"ELEMENT_SET_NO":999,"REV_AT_EPOCH":21621,"BSTAR":-0.00010470028,"MEAN_MOTION_DOT":-2.8e-7,"MEAN_MOTION_DDOT":0},{"OBJECT_NAME":"ONEWEB-0288","OBJECT_ID":"2021-075D","EPOCH":"2026-02-05T04:54:45.883872","MEAN_MOTION":13.12443544,"ECCENTRICITY":0.00018926,"INCLINATION":87.8954,"RA_OF_ASC_NODE":16.851,"ARG_OF_PERICENTER":86.7833,"MEAN_ANOMALY":273.3512,"EPHEMERIS_TYPE":0,"CLASSIFICATION_TYPE":"U","NORAD_CAT_ID":49078,"ELEMENT_SET_NO":999,"REV_AT_EPOCH":21787,"BSTAR":-0.00098965519,"MEAN_MOTION_DOT":-3.43e-6,"MEAN_MOTION_DDOT":0},{"OBJECT_NAME":"ONEWEB-0289","OBJECT_ID":"2021-075E","EPOCH":"2026-02-05T05:28:42.561696","MEAN_MOTION":13.17649291,"ECCENTRICITY":0.00019096,"INCLINATION":87.9098,"RA_OF_ASC_NODE":32.0948,"ARG_OF_PERICENTER":101.0897,"MEAN_ANOMALY":259.0449,"EPHEMERIS_TYPE":0,"CLASSIFICATION_TYPE":"U","NORAD_CAT_ID":49079,"ELEMENT_SET_NO":999,"REV_AT_EPOCH":21682,"BSTAR":1.2473783e-5,"MEAN_MOTION_DOT":1.8e-7,"MEAN_MOTION_DDOT":0},{"OBJECT_NAME":"ONEWEB-0290","OBJECT_ID":"2021-075F","EPOCH":"2026-02-05T06:39:20.868768","MEAN_MOTION":13.17651375,"ECCENTRICITY":0.00017304,"INCLINATION":87.9106,"RA_OF_ASC_NODE":32.0515,"ARG_OF_PERICENTER":106.9075,"MEAN_ANOMALY":253.2246,"EPHEMERIS_TYPE":0,"CLASSIFICATION_TYPE":"U","NORAD_CAT_ID":49080,"ELEMENT_SET_NO":999,"REV_AT_EPOCH":21624,"BSTAR":0.00010114506,"MEAN_MOTION_DOT":5.2e-7,"MEAN_MOTION_DDOT":0},{"OBJECT_NAME":"ONEWEB-0291","OBJECT_ID":"2021-075G","EPOCH":"2026-02-05T06:17:29.588064","MEAN_MOTION":13.17647973,"ECCENTRICITY":0.00022193,"INCLINATION":87.9105,"RA_OF_ASC_NODE":32.0627,"ARG_OF_PERICENTER":91.9326,"MEAN_ANOMALY":268.206,"EPHEMERIS_TYPE":0,"CLASSIFICATION_TYPE":"U","NORAD_CAT_ID":49081,"ELEMENT_SET_NO":999,"REV_AT_EPOCH":21623,"BSTAR":1.5122204e-5,"MEAN_MOTION_DOT":1.9e-7,"MEAN_MOTION_DDOT":0},{"OBJECT_NAME":"ONEWEB-0293","OBJECT_ID":"2021-075H","EPOCH":"2026-02-04T23:36:32.816160","MEAN_MOTION":13.17647197,"ECCENTRICITY":0.00018489,"INCLINATION":87.9096,"RA_OF_ASC_NODE":32.1328,"ARG_OF_PERICENTER":92.9165,"MEAN_ANOMALY":267.2178,"EPHEMERIS_TYPE":0,"CLASSIFICATION_TYPE":"U","NORAD_CAT_ID":49082,"ELEMENT_SET_NO":999,"REV_AT_EPOCH":21622,"BSTAR":-4.205468e-6,"MEAN_MOTION_DOT":1.1e-7,"MEAN_MOTION_DDOT":0},{"OBJECT_NAME":"ONEWEB-0294","OBJECT_ID":"2021-075J","EPOCH":"2026-02-04T23:35:10.224672","MEAN_MOTION":13.12443358,"ECCENTRICITY":0.0001843,"INCLINATION":87.895,"RA_OF_ASC_NODE":16.8982,"ARG_OF_PERICENTER":95.0898,"MEAN_ANOMALY":265.0441,"EPHEMERIS_TYPE":0,"CLASSIFICATION_TYPE":"U","NORAD_CAT_ID":49083,"ELEMENT_SET_NO":999,"REV_AT_EPOCH":21723,"BSTAR":-0.00038025698,"MEAN_MOTION_DOT":-1.24e-6,"MEAN_MOTION_DDOT":0},{"OBJECT_NAME":"ONEWEB-0295","OBJECT_ID":"2021-075K","EPOCH":"2026-02-04T23:35:21.333984","MEAN_MOTION":13.1764795,"ECCENTRICITY":0.00021806,"INCLINATION":87.9095,"RA_OF_ASC_NODE":32.1373,"ARG_OF_PERICENTER":88.9656,"MEAN_ANOMALY":271.1725,"EPHEMERIS_TYPE":0,"CLASSIFICATION_TYPE":"U","NORAD_CAT_ID":49084,"ELEMENT_SET_NO":999,"REV_AT_EPOCH":21618,"BSTAR":-4.3444652e-5,"MEAN_MOTION_DOT":-4.0e-8,"MEAN_MOTION_DDOT":0},{"OBJECT_NAME":"ONEWEB-0296","OBJECT_ID":"2021-075L","EPOCH":"2026-02-05T04:35:14.757792","MEAN_MOTION":13.124423,"ECCENTRICITY":0.00021565,"INCLINATION":87.8953,"RA_OF_ASC_NODE":16.8594,"ARG_OF_PERICENTER":88.3652,"MEAN_ANOMALY":271.7724,"EPHEMERIS_TYPE":0,"CLASSIFICATION_TYPE":"U","NORAD_CAT_ID":49085,"ELEMENT_SET_NO":999,"REV_AT_EPOCH":21726,"BSTAR":-0.00082637461,"MEAN_MOTION_DOT":-2.85e-6,"MEAN_MOTION_DDOT":0},{"OBJECT_NAME":"ONEWEB-0297","OBJECT_ID":"2021-075M","EPOCH":"2026-02-05T05:19:09.796224","MEAN_MOTION":13.12443239,"ECCENTRICITY":0.0001928,"INCLINATION":87.8943,"RA_OF_ASC_NODE":16.8814,"ARG_OF_PERICENTER":84.3666,"MEAN_ANOMALY":275.7682,"EPHEMERIS_TYPE":0,"CLASSIFICATION_TYPE":"U","NORAD_CAT_ID":49086,"ELEMENT_SET_NO":999,"REV_AT_EPOCH":21787,"BSTAR":0.00060953767,"MEAN_MOTION_DOT":2.32e-6,"MEAN_MOTION_DDOT":0}]
