ONEWEB-0280             
1 48998U 21060AH  26036.05407794  .00000053  00000+0  10417-3 0  9993
2 48998  87.9007 255.0789 0001549 101.3644 258.7661 13.16596274222178
ONEWEB-0281             
1 48999U 21060AJ  26035.67964570  .00000070  00000+0  15040-3 0  9997
2 48999  87.9012 255.1485 0001475  81.3398 278.7900 13.16593886222196
ONEWEB-0282             
1 49000U 21060AK  26036.01371398 -.00000097  00000+0 -28785-3 0  9991
2 49000  87.9005 255.0921 0001429  92.1495 267.9800 13.16594026222212
ONEWEB-0283             
1 49001U 21060AL  26036.30661409  .00000080  00000+0  17478-3 0  9996
2 49001  87.9013 255.0338 0001306  84.8268 275.3012 13.16594721222269
ONEWEB-0284             
1 49002U 21060AM  26036.07229884  .00000014  00000+0  27918-5 0  9997
2 49002  87.9012 255.0713 0001710  99.3130 260.8194 13.16593848222218
ONEWEB-0285             
1 49075U 21075A   26035.94126296  .00000282  00000+0  74789-3 0  9994
2 49075  87.8956  16.9088 0001781  88.6320 271.5013 13.12442900217865
ONEWEB-0286             
1 49076U 21075B   26035.99956712  .00000450  00000+0  12166-2 0  9991
2 49076  87.8942  16.9275 0002031  81.0454 279.0904 13.12441866217225
ONEWEB-0287             
1 49077U 21075C   26035.96180015 -.00000028  00000+0 -10470-3 0  9994
2 49077  87.9096  32.1363 0002270  84.6222 275.5169 13.17649544216212
ONEWEB-0288             
1 49078U 21075D   26036.20469773 -.00000343  00000+0 -98966-3 0  9990
2 49078  87.8954  16.8510 0001892  86.7833 273.3512 13.12443544217876
ONEWEB-0289             
1 49079U 21075E   26036.22827039  .00000018  00000+0  12474-4 0  9994
2 49079  87.9098  32.0948 0001909 101.0897 259.0449 13.17649291216828
ONEWEB-0290             
1 49080U 21075F   26036.27732487  .00000052  00000+0  10115-3 0  9990
2 49080  87.9106  32.0515 0001730 106.9075 253.2246 13.17651375216247
ONEWEB-0291             
1 49081U 21075G   26036.26214801  .00000019  00000+0  15122-4 0  9992
2 49081  87.9105  32.0627 0002219  91.9326 268.2060 13.17647973216234
ONEWEB-0293             
1 49082U 21075H   26035.98371315  .00000011  00000+0 -42055-5 0  9994
2 49082  87.9096  32.1328 0001848  92.9165 267.2178 13.17647197216228
ONEWEB-0294             
1 49083U 21075J   26035.98275723 -.00000124  00000+0 -38026-3 0  9998
2 49083  87.8950  16.8982 0001843  95.0898 265.0441 13.12443358217233
ONEWEB-0295             
1 49084U 21075K   26035.98288581 -.00000004  00000+0 -43445-4 0  9994
2 49084  87.9095  32.1373 0002180  88.9656 271.1725 13.17647950216183
ONEWEB-0296             
1 49085U 21075L   26036.19114303 -.00000285  00000+0 -82637-3 0  9995
2 49085  87.8953  16.8594 0002156  88.3652 271.7724 13.12442300217265
ONEWEB-0297             
1 49086U 21075M   26036.22164116  .00000232  00000+0  60954-3 0  9995
2 49086  87.8943  16.8814 0001928  84.3666 275.7682 13.12443239217873
